{
  "type": "FeatureCollection",
  "features": [
    {
      "type": "Feature",
      "properties": {
        "norad_id": 25590,
        "name": "COSMOS 2361",
        "group": "musson",
        "lat": -78.34130080723503,
        "lon": -166.12049573429937,
        "alt_km": 974.9105608045857,
        "timestamp": "2025-12-22T09:53:37.671425+00:00",
        "meta_object_name": "COSMOS 2361",
        "meta_object_id": "1998-076A",
        "meta_epoch": "2025-12-21T22:16:17.008032",
        "meta_mean_motion": 13.73218561,
        "meta_eccentricity": 0.0030212,
        "meta_inclination": 82.9342,
        "meta_ra_of_asc_node": 337.2902,
        "meta_arg_of_pericenter": 238.9801,
        "meta_mean_anomaly": 148.9011,
        "meta_ephemeris_type": 0,
        "meta_classification_type": "U",
        "meta_norad_cat_id": 25590,
        "meta_element_set_no": 999,
        "meta_rev_at_epoch": 35237,
        "meta_bstar": 4.3328e-05,
        "meta_mean_motion_dot": 5.5e-07,
        "meta_mean_motion_ddot": 0,
        "tle_line1": "1 25590U 98076A   25355.92797463  .00000055  00000+0  43328-4 0  9991",
        "tle_line2": "2 25590  82.9342 337.2902 0030212 238.9801 148.9011 13.73218561352377"
      },
      "geometry": {
        "type": "Point",
        "coordinates": [
          -166.12049573429937,
          -78.34130080723503
        ]
      }
    },
    {
      "type": "Feature",
      "properties": {
        "norad_id": 26818,
        "name": "COSMOS 2378",
        "group": "musson",
        "lat": 5.123596592063493,
        "lon": -6.809764239978737,
        "alt_km": 1011.0152333505193,
        "timestamp": "2025-12-22T09:53:37.671447+00:00",
        "meta_object_name": "COSMOS 2378",
        "meta_object_id": "2001-023A",
        "meta_epoch": "2025-12-21T23:28:27.266304",
        "meta_mean_motion": 13.74142721,
        "meta_eccentricity": 0.0032977,
        "meta_inclination": 82.927,
        "meta_ra_of_asc_node": 352.8742,
        "meta_arg_of_pericenter": 178.9434,
        "meta_mean_anomaly": 199.8985,
        "meta_ephemeris_type": 0,
        "meta_classification_type": "U",
        "meta_norad_cat_id": 26818,
        "meta_element_set_no": 999,
        "meta_rev_at_epoch": 23050,
        "meta_bstar": 2.6991e-05,
        "meta_mean_motion_dot": 4.1e-07,
        "meta_mean_motion_ddot": 0,
        "tle_line1": "1 26818U 01023A   25355.97809336  .00000041  00000+0  26991-4 0  9991",
        "tle_line2": "2 26818  82.9270 352.8742 0032977 178.9434 199.8985 13.74142721230501"
      },
      "geometry": {
        "type": "Point",
        "coordinates": [
          -6.809764239978737,
          5.123596592063493
        ]
      }
    },
    {
      "type": "Feature",
      "properties": {
        "norad_id": 27436,
        "name": "COSMOS 2389",
        "group": "musson",
        "lat": -66.19419827294337,
        "lon": 136.1115260241444,
        "alt_km": 1017.5452798693159,
        "timestamp": "2025-12-22T09:53:37.671460+00:00",
        "meta_object_name": "COSMOS 2389",
        "meta_object_id": "2002-026A",
        "meta_epoch": "2025-12-22T03:30:33.446016",
        "meta_mean_motion": 13.75155593,
        "meta_eccentricity": 0.0047239,
        "meta_inclination": 82.9511,
        "meta_ra_of_asc_node": 300.0214,
        "meta_arg_of_pericenter": 35.0971,
        "meta_mean_anomaly": 336.1418,
        "meta_ephemeris_type": 0,
        "meta_classification_type": "U",
        "meta_norad_cat_id": 27436,
        "meta_element_set_no": 999,
        "meta_rev_at_epoch": 18278,
        "meta_bstar": 4.9184e-05,
        "meta_mean_motion_dot": 6.3e-07,
        "meta_mean_motion_ddot": 0,
        "tle_line1": "1 27436U 02026A   25356.14622044  .00000063  00000+0  49184-4 0  9994",
        "tle_line2": "2 27436  82.9511 300.0214 0047239  35.0971 336.1418 13.75155593182786"
      },
      "geometry": {
        "type": "Point",
        "coordinates": [
          136.1115260241444,
          -66.19419827294337
        ]
      }
    },
    {
      "type": "Feature",
      "properties": {
        "norad_id": 27818,
        "name": "COSMOS 2398",
        "group": "musson",
        "lat": 74.38021857750391,
        "lon": 59.29336251921662,
        "alt_km": 960.9917859792076,
        "timestamp": "2025-12-22T09:53:37.671472+00:00",
        "meta_object_name": "COSMOS 2398",
        "meta_object_id": "2003-023A",
        "meta_epoch": "2025-12-22T02:56:50.416800",
        "meta_mean_motion": 13.72386646,
        "meta_eccentricity": 0.0032715,
        "meta_inclination": 82.9484,
        "meta_ra_of_asc_node": 265.7841,
        "meta_arg_of_pericenter": 86.8011,
        "meta_mean_anomaly": 27.849,
        "meta_ephemeris_type": 0,
        "meta_classification_type": "U",
        "meta_norad_cat_id": 27818,
        "meta_element_set_no": 999,
        "meta_rev_at_epoch": 12945,
        "meta_bstar": 6.6192e-05,
        "meta_mean_motion_dot": 7.6e-07,
        "meta_mean_motion_ddot": 0,
        "tle_line1": "1 27818U 03023A   25356.12280575  .00000076  00000+0  66192-4 0  9995",
        "tle_line2": "2 27818  82.9484 265.7841 0032715  86.8011  27.8490 13.72386646129455"
      },
      "geometry": {
        "type": "Point",
        "coordinates": [
          59.29336251921662,
          74.38021857750391
        ]
      }
    },
    {
      "type": "Feature",
      "properties": {
        "norad_id": 28380,
        "name": "COSMOS 2407",
        "group": "musson",
        "lat": 74.7713900067604,
        "lon": -127.27265385489714,
        "alt_km": 950.2059070628611,
        "timestamp": "2025-12-22T09:53:37.671482+00:00",
        "meta_object_name": "COSMOS 2407",
        "meta_object_id": "2004-028A",
        "meta_epoch": "2025-12-22T03:07:00.984000",
        "meta_mean_motion": 13.76314712,
        "meta_eccentricity": 0.0039896,
        "meta_inclination": 82.9597,
        "meta_ra_of_asc_node": 205.9402,
        "meta_arg_of_pericenter": 29.2204,
        "meta_mean_anomaly": 88.6556,
        "meta_ephemeris_type": 0,
        "meta_classification_type": "U",
        "meta_norad_cat_id": 28380,
        "meta_element_set_no": 999,
        "meta_rev_at_epoch": 7552,
        "meta_bstar": 4.6818e-05,
        "meta_mean_motion_dot": 6.1e-07,
        "meta_mean_motion_ddot": 0,
        "tle_line1": "1 28380U 04028A   25356.12987250  .00000061  00000+0  46818-4 0  9997",
        "tle_line2": "2 28380  82.9597 205.9402 0039896  29.2204  88.6556 13.76314712 75521"
      },
      "geometry": {
        "type": "Point",
        "coordinates": [
          -127.27265385489714,
          74.7713900067604
        ]
      }
    },
    {
      "type": "Feature",
      "properties": {
        "norad_id": 28521,
        "name": "COSMOS 2414",
        "group": "musson",
        "lat": 21.873339192913736,
        "lon": -179.8063243526825,
        "alt_km": 935.9099480104178,
        "timestamp": "2025-12-22T09:53:37.671493+00:00",
        "meta_object_name": "COSMOS 2414",
        "meta_object_id": "2005-002A",
        "meta_epoch": "2025-12-21T23:24:23.087808",
        "meta_mean_motion": 13.87904241,
        "meta_eccentricity": 0.0041326,
        "meta_inclination": 82.9488,
        "meta_ra_of_asc_node": 177.6761,
        "meta_arg_of_pericenter": 114.0366,
        "meta_mean_anomaly": 246.513,
        "meta_ephemeris_type": 0,
        "meta_classification_type": "U",
        "meta_norad_cat_id": 28521,
        "meta_element_set_no": 999,
        "meta_rev_at_epoch": 5923,
        "meta_bstar": 5.0905e-05,
        "meta_mean_motion_dot": 7.7e-07,
        "meta_mean_motion_ddot": 0,
        "tle_line1": "1 28521U 05002A   25355.97526722  .00000077  00000+0  50905-4 0  9991",
        "tle_line2": "2 28521  82.9488 177.6761 0041326 114.0366 246.5130 13.87904241 59230"
      },
      "geometry": {
        "type": "Point",
        "coordinates": [
          -179.8063243526825,
          21.873339192913736
        ]
      }
    },
    {
      "type": "Feature",
      "properties": {
        "norad_id": 32052,
        "name": "COSMOS 2429",
        "group": "musson",
        "lat": 72.07365737849183,
        "lon": -1.436220430127989,
        "alt_km": 960.8546079939688,
        "timestamp": "2025-12-22T09:53:37.671504+00:00",
        "meta_object_name": "COSMOS 2429",
        "meta_object_id": "2007-038A",
        "meta_epoch": "2025-12-22T04:18:05.224032",
        "meta_mean_motion": 13.75150313,
        "meta_eccentricity": 0.0038693,
        "meta_inclination": 82.9807,
        "meta_ra_of_asc_node": 336.3497,
        "meta_arg_of_pericenter": 11.929,
        "meta_mean_anomaly": 348.2774,
        "meta_ephemeris_type": 0,
        "meta_classification_type": "U",
        "meta_norad_cat_id": 32052,
        "meta_element_set_no": 999,
        "meta_rev_at_epoch": 91732,
        "meta_bstar": 3.9121e-05,
        "meta_mean_motion_dot": 5.3e-07,
        "meta_mean_motion_ddot": 0,
        "tle_line1": "1 32052U 07038A   25356.17922713  .00000053  00000+0  39121-4 0  9990",
        "tle_line2": "2 32052  82.9807 336.3497 0038693  11.9290 348.2774 13.75150313917320"
      },
      "geometry": {
        "type": "Point",
        "coordinates": [
          -1.436220430127989,
          72.07365737849183
        ]
      }
    },
    {
      "type": "Feature",
      "properties": {
        "norad_id": 35635,
        "name": "COSMOS 2454",
        "group": "musson",
        "lat": 36.09786492388304,
        "lon": -23.860135907818883,
        "alt_km": 927.8041617422923,
        "timestamp": "2025-12-22T09:53:37.671514+00:00",
        "meta_object_name": "COSMOS 2454",
        "meta_object_id": "2009-039A",
        "meta_epoch": "2025-12-21T23:24:56.268864",
        "meta_mean_motion": 13.89929729,
        "meta_eccentricity": 0.0020165,
        "meta_inclination": 82.9557,
        "meta_ra_of_asc_node": 161.6435,
        "meta_arg_of_pericenter": 48.9508,
        "meta_mean_anomaly": 70.9765,
        "meta_ephemeris_type": 0,
        "meta_classification_type": "U",
        "meta_norad_cat_id": 35635,
        "meta_element_set_no": 999,
        "meta_rev_at_epoch": 83278,
        "meta_bstar": 3.7232e-05,
        "meta_mean_motion_dot": 6.2e-07,
        "meta_mean_motion_ddot": 0,
        "tle_line1": "1 35635U 09039A   25355.97565126  .00000062  00000+0  37232-4 0  9992",
        "tle_line2": "2 35635  82.9557 161.6435 0020165  48.9508  70.9765 13.89929729832785"
      },
      "geometry": {
        "type": "Point",
        "coordinates": [
          -23.860135907818883,
          36.09786492388304
        ]
      }
    },
    {
      "type": "Feature",
      "properties": {
        "norad_id": 36519,
        "name": "COSMOS 2463",
        "group": "musson",
        "lat": -82.64636135878247,
        "lon": -87.17275428392472,
        "alt_km": 975.6323367110645,
        "timestamp": "2025-12-22T09:53:37.671524+00:00",
        "meta_object_name": "COSMOS 2463",
        "meta_object_id": "2010-017A",
        "meta_epoch": "2025-12-22T01:40:21.877824",
        "meta_mean_motion": 13.71649945,
        "meta_eccentricity": 0.0034761,
        "meta_inclination": 82.9604,
        "meta_ra_of_asc_node": 19.8561,
        "meta_arg_of_pericenter": 261.2168,
        "meta_mean_anomaly": 116.098,
        "meta_ephemeris_type": 0,
        "meta_classification_type": "U",
        "meta_norad_cat_id": 36519,
        "meta_element_set_no": 999,
        "meta_rev_at_epoch": 78365,
        "meta_bstar": 3.9924e-05,
        "meta_mean_motion_dot": 5.1e-07,
        "meta_mean_motion_ddot": 0,
        "tle_line1": "1 36519U 10017A   25356.06969766  .00000051  00000+0  39924-4 0  9999",
        "tle_line2": "2 36519  82.9604  19.8561 0034761 261.2168 116.0980 13.71649945783655"
      },
      "geometry": {
        "type": "Point",
        "coordinates": [
          -87.17275428392472,
          -82.64636135878247
        ]
      }
    }
  ]
}